NORAD_CAT_ID,OBJECT_NAME,OBJECT_TYPE,EPOCH,MEAN_MOTION,ECCENTRICITY,INCLINATION,RA_OF_ASC_NODE,ARG_OF_PERICENTER,MEAN_ANOMALY,BSTAR,MEAN_MOTION_DOT,MEAN_MOTION_DDOT,TLE_LINE0,TLE_LINE1,TLE_LINE2,SEMIMAJOR_AXIS,PERIOD,APOGEE,PERIGEE,DECAYED
54082.0,STARLINK-5210,PAYLOAD,2024-02-17 11:24:41,15.08837203,0.0001547,53.2174,106.6373,89.3348,270.7821,5.6017e-05,6.04e-06,0.0,0 STARLINK-5210,1 54082U 22136AH  24048.47548081  .00000604  00000-0  56017-4 0  9991,2 54082  53.2174 106.6373 0001547  89.3348 270.7821 15.08837203 73577,6917.889,95.438,540.824,538.684,0.0
54082.0,STARLINK-5210,PAYLOAD,2024-02-17 20:57:00,15.08838337,0.0001576,53.2176,104.8529,86.6084,273.5088,5.5606e-05,5.97e-06,0.0,0 STARLINK-5210,1 54082U 22136AH  24048.87292056  .00000597  00000-0  55606-4 0  9997,2 54082  53.2176 104.8529 0001576  86.6084 273.5088 15.08838337 73633,6917.885,95.438,540.841,538.66,0.0
54082.0,STARLINK-5210,PAYLOAD,2024-02-18 11:15:27,15.08847973,0.0001557,53.2167,102.1768,90.2848,269.8322,0.00012012,1.625e-05,0.0,0 STARLINK-5210,1 54082U 22136AH  24049.46907323  .00001625  00000-0  12012-3 0  9999,2 54082  53.2167 102.1768 0001557  90.2848 269.8322 15.08847973 74206,6917.856,95.437,540.798,538.644,0.0
54082.0,STARLINK-5210,PAYLOAD,2024-02-18 20:47:47,15.08841098,0.000168,53.2169,100.3923,82.0866,278.0317,9.6034e-05,1.241e-05,0.0,0 STARLINK-5210,1 54082U 22136AH  24049.86651789  .00001241  00000-0  96034-4 0  9996,2 54082  53.2169 100.3923 0001680  82.0866 278.0317 15.08841098 73787,6917.877,95.437,540.904,538.58,0.0
54082.0,STARLINK-5210,PAYLOAD,2024-02-19 09:30:52,15.0883851,0.0001557,53.2169,98.0128,92.396,267.7211,5.9675e-05,6.62e-06,0.0,0 STARLINK-5210,1 54082U 22136AH  24050.39644027  .00000662  00000-0  59675-4 0  9999,2 54082  53.2169  98.0128 0001557  92.3960 267.7211 15.08838510 73861,6917.885,95.438,540.827,538.673,0.0
54082.0,STARLINK-5210,PAYLOAD,2024-02-20 09:21:39,15.08840268,0.0001451,53.2156,93.5525,93.0871,267.0287,5.1211e-05,5.27e-06,0.0,0 STARLINK-5210,1 54082U 22136AH  24051.39003955  .00000527  00000-0  51211-4 0  9997,2 54082  53.2156  93.5525 0001451  93.0871 267.0287 15.08840268 74499,6917.88,95.438,540.748,538.741,0.0
54082.0,STARLINK-5210,PAYLOAD,2024-02-20 12:32:25,15.08845977,0.0001591,53.2168,92.9561,98.6855,261.4318,-6.1584e-06,-3.86e-06,0.0,0 STARLINK-5210,1 54082U 22136AH  24051.52251730 -.00000386  00000-0 -61584-5 0  9998,2 54082  53.2168  92.9561 0001591  98.6855 261.4318 15.08845977 74038,6917.862,95.437,540.828,538.626,0.0
54082.0,STARLINK-5210,PAYLOAD,2024-02-21 12:23:12,15.08840296,0.0001515,53.2167,88.4962,92.2943,267.8223,9.106e-05,1.162e-05,0.0,0 STARLINK-5210,1 54082U 22136AH  24052.51611878  .00001162  00000-0  91060-4 0  9993,2 54082  53.2167  88.4962 0001515  92.2943 267.8223 15.08840296 74186,6917.879,95.438,540.793,538.696,0.0
54082.0,STARLINK-5210,PAYLOAD,2024-02-21 18:44:45,15.08836804,0.0001384,53.2157,87.3061,88.1188,271.9962,2.8265e-05,1.62e-06,0.0,0 STARLINK-5210,1 54082U 22136AH  24052.78108291  .00000162  00000-0  28265-4 0  9998,2 54082  53.2157  87.3061 0001384  88.1188 271.9962 15.08836804 74706,6917.89,95.438,540.713,538.798,0.0
54082.0,STARLINK-5210,PAYLOAD,2024-02-22 12:14:00,15.08837962,0.0001538,53.2172,84.0355,91.1045,269.0123,4.3666e-05,4.07e-06,0.0,0 STARLINK-5210,1 54082U 22136AH  24053.50972494  .00000407  00000-0  43666-4 0  9997,2 54082  53.2172  84.0355 0001538  91.1045 269.0123 15.08837962 74332,6917.887,95.438,540.816,538.688,0.0
54082.0,STARLINK-5210,PAYLOAD,2024-02-23 07:18:38,15.08839207,0.0001584,53.2174,80.4669,85.9861,274.1312,1.4426e-05,-5.8e-07,0.0,0 STARLINK-5210,1 54082U 22136AH  24054.30460676 -.00000058  00000-0  14426-4 0  9995,2 54082  53.2174  80.4669 0001584  85.9861 274.1312 15.08839207 74937,6917.883,95.438,540.844,538.652,0.0
54082.0,STARLINK-5210,PAYLOAD,2024-02-23 18:26:19,15.08838841,0.0001633,53.218,78.3853,85.3093,274.8086,4.9704e-05,5.03e-06,0.0,0 STARLINK-5210,1 54082U 22136AH  24054.76828677  .00000503  00000-0  49704-4 0  9995,2 54082  53.2180  78.3853 0001633  85.3093 274.8086 15.08838841 74524,6917.884,95.438,540.879,538.619,0.0
54082.0,STARLINK-5210,PAYLOAD,2024-02-24 08:44:48,15.08840633,0.0001622,53.2179,75.711,92.8992,267.2186,6.1061e-05,6.84e-06,0.0,0 STARLINK-5210,1 54082U 22136AH  24055.36444688  .00000684  00000-0  61061-4 0  9998,2 54082  53.2179  75.7110 0001622  92.8992 267.2186 15.08840633 75090,6917.878,95.438,540.866,538.621,0.0
54082.0,STARLINK-5210,PAYLOAD,2024-02-24 18:17:07,15.088415,0.0001668,53.2181,73.9264,85.2437,274.8745,5.4256e-05,5.76e-06,0.0,0 STARLINK-5210,1 54082U 22136AH  24055.76188710  .00000576  00000-0  54256-4 0  9991,2 54082  53.2181  73.9264 0001668  85.2437 274.8745 15.08841500 74675,6917.876,95.437,540.895,538.587,0.0
54082.0,STARLINK-5210,PAYLOAD,2024-02-25 08:35:35,15.08839226,0.0001652,53.218,71.2509,85.4176,274.7005,4.6591e-05,4.54e-06,0.0,0 STARLINK-5210,1 54082U 22136AH  24056.35804946  .00000454  00000-0  46591-4 0  9991,2 54082  53.2180  71.2509 0001652  85.4176 274.7005 15.08839226 74762,6917.883,95.438,540.891,538.605,0.0
54082.0,STARLINK-5210,PAYLOAD,2024-02-25 18:07:54,15.08842881,0.0001694,53.2183,69.4674,86.2859,273.8327,7.6297e-05,9.27e-06,0.0,0 STARLINK-5210,1 54082U 22136AH  24056.75548634  .00000927  00000-0  76297-4 0  9995,2 54082  53.2183  69.4674 0001694  86.2859 273.8327 15.08842881 75309,6917.872,95.437,540.908,538.565,0.0
54082.0,STARLINK-5210,PAYLOAD,2024-02-26 06:50:58,15.08845844,0.0001709,53.2183,67.089,85.4318,274.687,8.2912e-05,1.032e-05,0.0,0 STARLINK-5210,1 54082U 22136AH  24057.28540372  .00001032  00000-0  82912-4 0  9994,2 54082  53.2183  67.0890 0001709  85.4318 274.6870 15.08845844 74900,6917.863,95.437,540.91,538.545,0.0
54082.0,STARLINK-5210,PAYLOAD,2024-02-27 03:31:00,15.0883345,0.0001629,53.2177,63.2229,86.6374,273.4804,1.6197e-05,-3e-07,0.0,0 STARLINK-5210,1 54082U 22136AH  24058.14653356 -.00000030  00000-0  16197-4 0  9997,2 54082  53.2177  63.2229 0001629  86.6374 273.4804 15.08833450 75515,6917.9,95.438,540.892,538.638,0.0
54082.0,STARLINK-5210,PAYLOAD,2024-02-27 09:52:33,15.08836072,0.0001558,53.2175,62.0331,87.3284,272.7886,-1.636e-05,-5.48e-06,0.0,0 STARLINK-5210,1 54082U 22136AH  24058.41149318 -.00000548  00000-0 -16360-4 0  9992,2 54082  53.2175  62.0331 0001558  87.3284 272.7886 15.08836072 75079,6917.892,95.438,540.835,538.68,0.0
54082.0,STARLINK-5210,PAYLOAD,2024-02-27 17:49:29,15.08823842,0.0001555,53.2176,60.5441,87.6702,272.4468,-9.8968e-05,-1.862e-05,0.0,0 STARLINK-5210,1 54082U 22136AH  24058.74270519 -.00001862  00000-0 -98968-4 0  9990,2 54082  53.2176  60.5441 0001555  87.6702 272.4468 15.08823842 75603,6917.93,95.439,540.871,538.719,0.0
54082.0,STARLINK-5210,PAYLOAD,2024-02-28 09:43:20,15.08833394,0.000154,53.2182,57.567,102.1988,257.9177,-0.00012472,-2.272e-05,0.0,0 STARLINK-5210,1 54082U 22136AH  24059.40510406 -.00002272  00000-0 -12472-3 0  9997,2 54082  53.2182  57.5670 0001540 102.1988 257.9177 15.08833394 75702,6917.901,95.438,540.831,538.7,0.0
54082.0,STARLINK-5210,PAYLOAD,2024-02-29 03:12:34,15.08844753,0.0001391,53.2175,54.2993,88.7261,271.389,0.00015049,2.108e-05,0.0,0 STARLINK-5210,1 54082U 22136AH  24060.13373108  .00002108  00000-0  15049-3 0  9994,2 54082  53.2175  54.2993 0001391  88.7261 271.3890 15.08844753 75818,6917.866,95.437,540.693,538.769,0.0
54082.0,STARLINK-5210,PAYLOAD,2024-02-29 06:23:20,15.08847317,0.0001372,53.2174,53.7051,87.9174,272.1975,0.00018236,2.616e-05,0.0,0 STARLINK-5210,1 54082U 22136AH  24060.26620922  .00002616  00000-0  18236-3 0  9992,2 54082  53.2174  53.7051 0001372  87.9174 272.1975 15.08847317 75350,6917.858,95.437,540.672,538.774,0.0
54082.0,STARLINK-5210,PAYLOAD,2024-02-29 22:17:12,15.08830607,0.0001402,53.2173,50.732,89.0011,271.1142,0.00018011,2.579e-05,0.0,0 STARLINK-5210,1 54082U 22136AH  24060.92862171  .00002579  00000-0  18011-3 0  9998,2 54082  53.2173  50.7320 0001402  89.0011 271.1142 15.08830607 75452,6917.909,95.438,540.744,538.804,0.0
54082.0,STARLINK-5210,PAYLOAD,2024-03-01 03:03:22,15.08838513,0.0001493,53.2185,49.8414,91.613,268.5034,0.00013257,1.822e-05,0.0,0 STARLINK-5210,1 54082U 22136AH  24061.12733880  .00001822  00000-0  13257-3 0  9992,2 54082  53.2185  49.8414 0001493  91.6130 268.5034 15.08838513 75969,6917.885,95.438,540.783,538.717,0.0
54082.0,STARLINK-5210,PAYLOAD,2024-03-01 06:14:08,15.08840097,0.0001489,53.2185,49.2464,92.1816,267.9347,0.0001401,1.942e-05,0.0,0 STARLINK-5210,1 54082U 22136AH  24061.25981771  .00001942  00000-0  14010-3 0  9991,2 54082  53.2185  49.2464 0001489  92.1816 267.9347 15.08840097 75500,6917.88,95.438,540.775,538.715,0.0
54082.0,STARLINK-5210,PAYLOAD,2024-03-01 15:46:26,15.08844357,0.0001516,53.2189,47.4629,95.7441,264.3724,6.1382e-05,6.89e-06,0.0,0 STARLINK-5210,1 54082U 22136AH  24061.65725606  .00000689  00000-0  61382-4 0  9990,2 54082  53.2189  47.4629 0001516  95.7441 264.3724 15.08844357 75560,6917.867,95.437,540.781,538.683,0.0
54082.0,STARLINK-5210,PAYLOAD,2024-03-02 04:29:31,15.08849724,0.0001518,53.2191,45.0843,96.7399,263.3766,-1.754e-05,-5.67e-06,0.0,0 STARLINK-5210,1 54082U 22136AH  24062.18717349 -.00000567  00000-0 -17540-4 0  9998,2 54082  53.2191  45.0843 0001518  96.7399 263.3766 15.08849724 76121,6917.851,95.437,540.766,538.666,0.0
54082.0,STARLINK-5210,PAYLOAD,2024-03-03 04:20:19,15.08841901,0.0001459,53.2183,40.6221,97.6499,262.4659,-1.0169e-06,-3.04e-06,0.0,0 STARLINK-5210,1 54082U 22136AH  24063.18077580 -.00000304  00000-0 -10169-5 0  9995,2 54082  53.2183  40.6221 0001459  97.6499 262.4659 15.08841901 76274,6917.875,95.437,540.749,538.73,0.0
54082.0,STARLINK-5210,PAYLOAD,2024-03-03 07:31:05,15.08843514,0.0001447,53.2183,40.0272,97.1661,262.9495,1.0571e-05,-1.2e-06,0.0,0 STARLINK-5210,1 54082U 22136AH  24063.31325434 -.00000120  00000-0  10571-4 0  9995,2 54082  53.2183  40.0272 0001447  97.1661 262.9495 15.08843514 75811,6917.87,95.437,540.736,538.734,0.0
